STARLINK-1434           
1 45712U 20035BH  26068.24137979  .00054112  00000+0  20295-2 0  9995
2 45712  53.0547  22.1128 0005343  88.0400 272.1210 15.26724568319325
STARLINK-31692          
1 59577U 24076P   26068.18028968  .00000913  00000+0  42720-4 0  9997
2 59577  43.0042  11.9462 0001470 261.8483  98.2202 15.27578376106422
